start=new Date('2022-02-03T00:00:00.000Z').valueOf();
sats=[{"ARG_OF_PERICENTER":"77.6813","LAUNCH_DATE":"2020-11-25","CENTER_NAME":"EARTH","MEAN_MOTION":"15.06391259","ECCENTRICITY":"0.00012590","MEAN_MOTION_DDOT":"0.0000000000000","COUNTRY_CODE":"US","RCS_SIZE":"LARGE","TLE_LINE2":"2 47134  53.0538 176.9211 0001259  77.6813 282.4316 15.06391259 66370","CLASSIFICATION_TYPE":"U","ELEMENT_SET_NO":"999","APOAPSIS":"548.112","REF_FRAME":"TEME","PERIOD":"95.593","TIME_SYSTEM":"UTC","EPOCH":"2022-02-02T19:14:49.178112","OBJECT_NAME":"STARLINK-1844","OBJECT_ID":"2020-088N","MEAN_MOTION_DOT":"0.00000586","BSTAR":"0.00005823000000","MEAN_ANOMALY":"282.4316","SITE":"AFETR","PERIAPSIS":"546.368","MEAN_ELEMENT_THEORY":"SGP4","GP_ID":"195193181","RA_OF_ASC_NODE":"176.9211","REV_AT_EPOCH":"6637","EPHEMERIS_TYPE":"0","NORAD_CAT_ID":"47134","INCLINATION":"53.0538","SEMIMAJOR_AXIS":"6925.375","OBJECT_TYPE":"PAYLOAD","FILE":"3290513","DECAY_DATE":null,"TLE_LINE1":"1 47134U 20088N   22033.80195808  .00000586  00000-0  58230-4 0  9997"},{"ELEMENT_SET_NO":"999","APOAPSIS":"548.478","REF_FRAME":"TEME","PERIOD":"95.592","CLASSIFICATION_TYPE":"U","SITE":"AFETR","PERIAPSIS":"545.938","EPOCH":"2022-02-02T16:31:35.792544","TIME_SYSTEM":"UTC","OBJECT_ID":"2020-088P","OBJECT_NAME":"STARLINK-1845","MEAN_MOTION_DOT":"0.00001562","MEAN_ANOMALY":"272.4871","BSTAR":"0.00012371000000","CENTER_NAME":"EARTH","ARG_OF_PERICENTER":"87.6328","LAUNCH_DATE":"2020-11-25","RCS_SIZE":"LARGE","TLE_LINE2":"2 47135  53.0555 167.4410 0001834  87.6328 272.4871 15.06401703 66491","MEAN_MOTION":"15.06401703","ECCENTRICITY":"0.00018340","MEAN_MOTION_DDOT":"0.0000000000000","COUNTRY_CODE":"US","OBJECT_TYPE":"PAYLOAD","INCLINATION":"53.0555","SEMIMAJOR_AXIS":"6925.343","FILE":"3290513","DECAY_DATE":null,"TLE_LINE1":"1 47135U 20088P   22033.68860871  .00001562  00000-0  12371-3 0  9993","RA_OF_ASC_NODE":"167.4410","REV_AT_EPOCH":"6649","MEAN_ELEMENT_THEORY":"SGP4","GP_ID":"195191430","NORAD_CAT_ID":"47135","EPHEMERIS_TYPE":"0"},{"CLASSIFICATION_TYPE":"U","REF_FRAME":"TEME","PERIOD":"95.592","ELEMENT_SET_NO":"999","APOAPSIS":"548.554","OBJECT_ID":"2020-088Q","OBJECT_NAME":"STARLINK-1846","BSTAR":"0.00007258200000","MEAN_MOTION_DOT":"0.00000800","MEAN_ANOMALY":"270.9992","TIME_SYSTEM":"UTC","EPOCH":"2022-02-02T19:41:21.080832","PERIAPSIS":"545.890","SITE":"AFETR","ARG_OF_PERICENTER":"89.1218","LAUNCH_DATE":"2020-11-25","CENTER_NAME":"EARTH","MEAN_MOTION_DDOT":"0.0000000000000","COUNTRY_CODE":"US","MEAN_MOTION":"15.06397245","ECCENTRICITY":"0.00019230","TLE_LINE2":"2 47136  53.0554 176.8386 0001923  89.1218 270.9992 15.06397245 66370","RCS_SIZE":"LARGE","INCLINATION":"53.0554","SEMIMAJOR_AXIS":"6925.357","OBJECT_TYPE":"PAYLOAD","DECAY_DATE":null,"TLE_LINE1":"1 47136U 20088Q   22033.82038288  .00000800  00000-0  72582-4 0  9994","FILE":"3290513","GP_ID":"195191680","MEAN_ELEMENT_THEORY":"SGP4","REV_AT_EPOCH":"6637","RA_OF_ASC_NODE":"176.8386","NORAD_CAT_ID":"47136","EPHEMERIS_TYPE":"0"},{"SEMIMAJOR_AXIS":"6925.322","INCLINATION":"53.0539","OBJECT_TYPE":"PAYLOAD","TLE_LINE1":"1 47137U 20088R   22033.67017688 -.00001552  00000-0 -85268-4 0  9991","DECAY_DATE":null,"FILE":"3290513","GP_ID":"195192931","MEAN_ELEMENT_THEORY":"SGP4","REV_AT_EPOCH":"6649","RA_OF_ASC_NODE":"167.5103","EPHEMERIS_TYPE":"0","NORAD_CAT_ID":"47137","CLASSIFICATION_TYPE":"U","PERIOD":"95.592","REF_FRAME":"TEME","APOAPSIS":"548.331","ELEMENT_SET_NO":"999","MEAN_MOTION_DOT":"-0.00001552","BSTAR":"-0.00008526800000","MEAN_ANOMALY":"274.4896","OBJECT_NAME":"STARLINK-1849","OBJECT_ID":"2020-088R","EPOCH":"2022-02-02T16:05:03.282432","TIME_SYSTEM":"UTC","PERIAPSIS":"546.043","SITE":"AFETR","LAUNCH_DATE":"2020-11-25","ARG_OF_PERICENTER":"85.6281","CENTER_NAME":"EARTH","COUNTRY_CODE":"US","MEAN_MOTION_DDOT":"0.0000000000000","ECCENTRICITY":"0.00016520","MEAN_MOTION":"15.06408618","RCS_SIZE":"LARGE","TLE_LINE2":"2 47137  53.0539 167.5103 0001652  85.6281 274.4896 15.06408618 66490"},{"SITE":"AFETR","PERIAPSIS":"546.265","TIME_SYSTEM":"UTC","EPOCH":"2022-02-02T20:04:32.948544","OBJECT_ID":"2020-088S","OBJECT_NAME":"STARLINK-1850","MEAN_ANOMALY":"281.3224","MEAN_MOTION_DOT":"0.00001132","BSTAR":"0.00009486900000","ELEMENT_SET_NO":"999","APOAPSIS":"548.197","REF_FRAME":"TEME","PERIOD":"95.592","CLASSIFICATION_TYPE":"U","RCS_SIZE":"LARGE","TLE_LINE2":"2 47138  53.0556 171.7603 0001395  78.7921 281.3224 15.06394443 66458","MEAN_MOTION":"15.06394443","ECCENTRICITY":"0.00013950","MEAN_MOTION_DDOT":"0.0000000000000","COUNTRY_CODE":"US","CENTER_NAME":"EARTH","ARG_OF_PERICENTER":"78.7921","LAUNCH_DATE":"2020-11-25","FILE":"3290513","DECAY_DATE":null,"TLE_LINE1":"1 47138U 20088S   22033.83649246  .00001132  00000-0  94869-4 0  9990","OBJECT_TYPE":"PAYLOAD","SEMIMAJOR_AXIS":"6925.366","INCLINATION":"53.0556","EPHEMERIS_TYPE":"0","NORAD_CAT_ID":"47138","RA_OF_ASC_NODE":"171.7603","REV_AT_EPOCH":"6645","MEAN_ELEMENT_THEORY":"SGP4","GP_ID":"195192682"},{"TLE_LINE2":"2 47139  53.0551 181.7916 0001572  81.1610 278.9557 15.06390098 66309","RCS_SIZE":"LARGE","MEAN_MOTION_DDOT":"0.0000000000000","COUNTRY_CODE":"US","MEAN_MOTION":"15.06390098","ECCENTRICITY":"0.00015720","CENTER_NAME":"EARTH","ARG_OF_PERICENTER":"81.1610","LAUNCH_DATE":"2020-11-25","PERIAPSIS":"546.155","SITE":"AFETR","OBJECT_NAME":"STARLINK-1852","OBJECT_ID":"2020-088T","MEAN_MOTION_DOT":"-0.00001238","BSTAR":"-0.00006423000000","MEAN_ANOMALY":"278.9557","EPOCH":"2022-02-02T19:57:54.891648","TIME_SYSTEM":"UTC","REF_FRAME":"TEME","PERIOD":"95.593","ELEMENT_SET_NO":"999","APOAPSIS":"548.333","CLASSIFICATION_TYPE":"U","EPHEMERIS_TYPE":"0","NORAD_CAT_ID":"47139","REV_AT_EPOCH":"6630","RA_OF_ASC_NODE":"181.7916","GP_ID":"195191930","MEAN_ELEMENT_THEORY":"SGP4","DECAY_DATE":null,"TLE_LINE1":"1 47139U 20088T   22033.83188532 -.00001238  00000-0 -64230-4 0  9995","FILE":"3290513","OBJECT_TYPE":"PAYLOAD","SEMIMAJOR_AXIS":"6925.379","INCLINATION":"53.0551"},{"PERIOD":"95.593","REF_FRAME":"TEME","APOAPSIS":"548.302","ELEMENT_SET_NO":"999","CLASSIFICATION_TYPE":"U","PERIAPSIS":"546.183","SITE":"AFETR","BSTAR":"-0.00003518900000","MEAN_MOTION_DOT":"-0.00000805","MEAN_ANOMALY":"271.2463","OBJECT_NAME":"STARLINK-1854","OBJECT_ID":"2020-088V","EPOCH":"2022-02-02T18:38:59.667936","TIME_SYSTEM":"UTC","CENTER_NAME":"EARTH","LAUNCH_DATE":"2020-11-25","ARG_OF_PERICENTER":"88.8701","RCS_SIZE":"LARGE","TLE_LINE2":"2 47141  53.0589 167.0299 0001530  88.8701 271.2463 15.06390532 66511","COUNTRY_CODE":"US","MEAN_MOTION_DDOT":"0.0000000000000","ECCENTRICITY":"0.00015300","MEAN_MOTION":"15.06390532","OBJECT_TYPE":"PAYLOAD","SEMIMAJOR_AXIS":"6925.378","INCLINATION":"53.0589","TLE_LINE1":"1 47141U 20088V   22033.77707949 -.00000805  00000-0 -35189-4 0  9990","DECAY_DATE":null,"FILE":"3290513","REV_AT_EPOCH":"6651","RA_OF_ASC_NODE":"167.0299","GP_ID":"195192180","MEAN_ELEMENT_THEORY":"SGP4","EPHEMERIS_TYPE":"0","NORAD_CAT_ID":"47141"},{"CENTER_NAME":"EARTH","ARG_OF_PERICENTER":"84.8241","LAUNCH_DATE":"2020-11-25","TLE_LINE2":"2 47143  53.0542 166.8031 0001572  84.8241 275.2928 15.06392618 66511","RCS_SIZE":"LARGE","MEAN_MOTION":"15.06392618","ECCENTRICITY":"0.00015720","MEAN_MOTION_DDOT":"0.0000000000000","COUNTRY_CODE":"US","ELEMENT_SET_NO":"999","APOAPSIS":"548.325","REF_FRAME":"TEME","PERIOD":"95.593","CLASSIFICATION_TYPE":"U","SITE":"AFETR","PERIAPSIS":"546.148","EPOCH":"2022-02-02T19:47:59.634528","TIME_SYSTEM":"UTC","OBJECT_NAME":"STARLINK-1856","OBJECT_ID":"2020-088X","BSTAR":"0.00010731000000","MEAN_MOTION_DOT":"0.00001317","MEAN_ANOMALY":"275.2928","RA_OF_ASC_NODE":"166.8031","REV_AT_EPOCH":"6651","MEAN_ELEMENT_THEORY":"SGP4","GP_ID":"195192432","EPHEMERIS_TYPE":"0","NORAD_CAT_ID":"47143","OBJECT_TYPE":"PAYLOAD","SEMIMAJOR_AXIS":"6925.371","INCLINATION":"53.0542","FILE":"3290513","DECAY_DATE":null,"TLE_LINE1":"1 47143U 20088X   22033.82499577  .00001317  00000-0  10731-3 0  9995"},{"OBJECT_TYPE":"PAYLOAD","INCLINATION":"53.0548","SEMIMAJOR_AXIS":"6925.375","FILE":"3290513","TLE_LINE1":"1 47144U 20088Y   22033.81116013 -.00003921  00000-0 -24450-3 0  9994","DECAY_DATE":null,"RA_OF_ASC_NODE":"156.8840","REV_AT_EPOCH":"6665","MEAN_ELEMENT_THEORY":"SGP4","GP_ID":"195193182","NORAD_CAT_ID":"47144","EPHEMERIS_TYPE":"0","APOAPSIS":"549.001","ELEMENT_SET_NO":"999","PERIOD":"95.593","REF_FRAME":"TEME","CLASSIFICATION_TYPE":"U","SITE":"AFETR","PERIAPSIS":"545.479","EPOCH":"2022-02-02T19:28:04.235232","TIME_SYSTEM":"UTC","MEAN_ANOMALY":"300.2063","MEAN_MOTION_DOT":"-0.00003921","BSTAR":"-0.00024450000000","OBJECT_NAME":"STARLINK-1857","OBJECT_ID":"2020-088Y","CENTER_NAME":"EARTH","LAUNCH_DATE":"2020-11-25","ARG_OF_PERICENTER":"59.9178","TLE_LINE2":"2 47144  53.0548 156.8840 0002543  59.9178 300.2063 15.06391430 66651","RCS_SIZE":"LARGE","ECCENTRICITY":"0.00025430","MEAN_MOTION":"15.06391430","COUNTRY_CODE":"US","MEAN_MOTION_DDOT":"0.0000000000000"},{"SITE":"AFETR","PERIAPSIS":"481.428","EPOCH":"2022-02-02T21:14:32.010144","TIME_SYSTEM":"UTC","OBJECT_ID":"2020-088Z","OBJECT_NAME":"STARLINK-1858","MEAN_ANOMALY":"297.3033","MEAN_MOTION_DOT":"0.00218869","BSTAR":"0.00773640000000","ELEMENT_SET_NO":"999","APOAPSIS":"483.401","REF_FRAME":"TEME","PERIOD":"94.254","CLASSIFICATION_TYPE":"U","TLE_LINE2":"2 47145  53.0530 154.6044 0001438  62.8112 297.3033 15.27792547 66692","RCS_SIZE":"LARGE","MEAN_MOTION":"15.27792547","ECCENTRICITY":"0.00014380","MEAN_MOTION_DDOT":"0.0000000000000","COUNTRY_CODE":"US","CENTER_NAME":"EARTH","ARG_OF_PERICENTER":"62.8112","LAUNCH_DATE":"2020-11-25","FILE":"3290513","DECAY_DATE":null,"TLE_LINE1":"1 47145U 20088Z   22033.88509271  .00218869  00000-0  77364-2 0  9992","OBJECT_TYPE":"PAYLOAD","SEMIMAJOR_AXIS":"6860.550","INCLINATION":"53.0530","EPHEMERIS_TYPE":"0","NORAD_CAT_ID":"47145","RA_OF_ASC_NODE":"154.6044","REV_AT_EPOCH":"6669","MEAN_ELEMENT_THEORY":"SGP4","GP_ID":"195191431"}];
